{
    "links": {
        "self": "http://www.neowsapp.com/rest/v1/neo/3905990?api_key=iIulBulltgU6a56xZRHN4H3l9WmuAYTsLGpBGhQ2"
    },
    "id": "3905990",
    "neo_reference_id": "3905990",
    "name": "(2019 XH1)",
    "designation": "2019 XH1",
    "nasa_jpl_url": "http://ssd.jpl.nasa.gov/sbdb.cgi?sstr=3905990",
    "absolute_magnitude_h": 25.5,
    "estimated_diameter": {
        "kilometers": {
            "estimated_diameter_min": 0.0211132445,
            "estimated_diameter_max": 0.0472106499
        },
        "meters": {
            "estimated_diameter_min": 21.113244479,
            "estimated_diameter_max": 47.2106498806
        },
        "miles": {
            "estimated_diameter_min": 0.0131191578,
            "estimated_diameter_max": 0.0293353287
        },
        "feet": {
            "estimated_diameter_min": 69.2691770164,
            "estimated_diameter_max": 154.8905885541
        }
    },
    "is_potentially_hazardous_asteroid": false,
    "close_approach_data": [
        {
            "close_approach_date": "2019-11-17",
            "close_approach_date_full": "2019-Nov-17 21:23",
            "epoch_date_close_approach": 1574025780000,
            "relative_velocity": {
                "kilometers_per_second": "10.7126398928",
                "kilometers_per_hour": "38565.5036139666",
                "miles_per_hour": "23963.1041761339"
            },
            "miss_distance": {
                "astronomical": "0.0108396364",
                "lunar": "4.2166185596",
                "kilometers": "1621586.517014468",
                "miles": "1007607.1383089384"
            },
            "orbiting_body": "Earth"
        },
        {
            "close_approach_date": "2019-11-18",
            "close_approach_date_full": "2019-Nov-18 07:35",
            "epoch_date_close_approach": 1574062500000,
            "relative_velocity": {
                "kilometers_per_second": "11.3775378472",
                "kilometers_per_hour": "40959.1362499668",
                "miles_per_hour": "25450.4144104308"
            },
            "miss_distance": {
                "astronomical": "0.0097464207",
                "lunar": "3.7913576523",
                "kilometers": "1458043.776843909",
                "miles": "905986.3917835842"
            },
            "orbiting_body": "Moon"
        }
    ],
    "orbital_data": {
        "orbit_id": "2",
        "orbit_determination_date": "2019-12-14 07:04:53",
        "first_observation_date": "2019-12-02",
        "last_observation_date": "2019-12-05",
        "data_arc_in_days": 3,
        "observations_used": 16,
        "orbit_uncertainty": "9",
        "minimum_orbit_intersection": ".00677144",
        "jupiter_tisserand_invariant": "3.631",
        "epoch_osculation": "2458820.5",
        "eccentricity": ".5495111708679897",
        "semi_major_axis": "2.005775141235722",
        "inclination": "2.259214445346213",
        "ascending_node_longitude": "46.55784419182909",
        "orbital_period": "1037.580482169513",
        "perihelion_distance": ".9035792948773728",
        "perihelion_argument": "329.344699050205",
        "aphelion_distance": "3.107970987594071",
        "perihelion_time": "2458776.120397205521",
        "mean_anomaly": "15.39799300446197",
        "mean_motion": ".3469610369378417",
        "equinox": "J2000",
        "orbit_class": {
            "orbit_class_type": "APO",
            "orbit_class_description": "Near-Earth asteroid orbits which cross the Earth’s orbit similar to that of 1862 Apollo",
            "orbit_class_range": "a (semi-major axis) > 1.0 AU; q (perihelion) < 1.017 AU"
        }
    },
    "is_sentry_object": false
}